start=new Date('2023-03-31T00:00:00.000Z').valueOf();
sats=[{"EPOCH":"2023-03-30T17:34:07.000608","DECAY_DATE":null,"FILE":"3875726","PERIOD":"95.585","CLASSIFICATION_TYPE":"U","TLE_LINE2":"2 45695  53.0514 182.2800 0001172  95.9724 264.1398 15.06510905157139","EPHEMERIS_TYPE":"0","REF_FRAME":"TEME","COUNTRY_CODE":"US","CENTER_NAME":"EARTH","OBJECT_ID":"2020-035AQ","TIME_SYSTEM":"UTC","OBJECT_NAME":"STARLINK-1420","LAUNCH_DATE":"2020-06-04","NORAD_CAT_ID":"45695","APOAPSIS":"547.685","SEMIMAJOR_AXIS":"6925.009","GP_ID":"229179825","MEAN_MOTION_DDOT":"0.0000000000000","RA_OF_ASC_NODE":"182.2800","MEAN_MOTION":"15.06510905","OBJECT_TYPE":"PAYLOAD","MEAN_ELEMENT_THEORY":"SGP4","SITE":"AFETR","INCLINATION":"53.0514","ECCENTRICITY":"0.00011720","MEAN_MOTION_DOT":"0.00045351","RCS_SIZE":"LARGE","BSTAR":"0.00303490000000","REV_AT_EPOCH":"15713","ARG_OF_PERICENTER":"95.9724","ELEMENT_SET_NO":"999","TLE_LINE1":"1 45695U 20035AQ  23089.73202547  .00045351  00000-0  30349-2 0  9990","PERIAPSIS":"546.062","MEAN_ANOMALY":"264.1398"},{"OBJECT_TYPE":"PAYLOAD","RA_OF_ASC_NODE":"201.9461","MEAN_MOTION":"15.06474763","GP_ID":"229180575","MEAN_MOTION_DDOT":"0.0000000000000","NORAD_CAT_ID":"45696","APOAPSIS":"547.746","SEMIMAJOR_AXIS":"6925.119","LAUNCH_DATE":"2020-06-04","TIME_SYSTEM":"UTC","OBJECT_NAME":"STARLINK-1422","OBJECT_ID":"2020-035AR","CENTER_NAME":"EARTH","REF_FRAME":"TEME","COUNTRY_CODE":"US","TLE_LINE2":"2 45696  53.0532 201.9461 0001100  82.3247 277.7867 15.06474763156853","EPHEMERIS_TYPE":"0","FILE":"3875726","PERIOD":"95.587","CLASSIFICATION_TYPE":"U","EPOCH":"2023-03-30T19:24:20.097216","DECAY_DATE":null,"MEAN_ANOMALY":"277.7867","PERIAPSIS":"546.223","TLE_LINE1":"1 45696U 20035AR  23089.80856594  .00047874  00000-0  32047-2 0  9995","ARG_OF_PERICENTER":"82.3247","REV_AT_EPOCH":"15685","ELEMENT_SET_NO":"999","BSTAR":"0.00320470000000","RCS_SIZE":"LARGE","MEAN_MOTION_DOT":"0.00047874","ECCENTRICITY":"0.00011000","INCLINATION":"53.0532","SITE":"AFETR","MEAN_ELEMENT_THEORY":"SGP4"},{"MEAN_ANOMALY":"261.8514","PERIAPSIS":"546.309","TLE_LINE1":"1 45697U 20035AS  23089.51923729  .00042509  00000-0  28521-2 0  9991","ELEMENT_SET_NO":"999","REV_AT_EPOCH":"15710","ARG_OF_PERICENTER":"98.2600","BSTAR":"0.00285210000000","RCS_SIZE":"LARGE","MEAN_MOTION_DOT":"0.00042509","ECCENTRICITY":"0.00011070","INCLINATION":"53.0514","SITE":"AFETR","MEAN_ELEMENT_THEORY":"SGP4","OBJECT_TYPE":"PAYLOAD","RA_OF_ASC_NODE":"183.2470","MEAN_MOTION":"15.06444960","MEAN_MOTION_DDOT":"0.0000000000000","GP_ID":"229180827","SEMIMAJOR_AXIS":"6925.211","APOAPSIS":"547.842","NORAD_CAT_ID":"45697","LAUNCH_DATE":"2020-06-04","OBJECT_NAME":"STARLINK-1351","TIME_SYSTEM":"UTC","OBJECT_ID":"2020-035AS","CENTER_NAME":"EARTH","COUNTRY_CODE":"US","REF_FRAME":"TEME","EPHEMERIS_TYPE":"0","TLE_LINE2":"2 45697  53.0514 183.2470 0001107  98.2600 261.8514 15.06444960157100","PERIOD":"95.589","CLASSIFICATION_TYPE":"U","FILE":"3875726","DECAY_DATE":null,"EPOCH":"2023-03-30T12:27:42.101856"},{"BSTAR":"0.00309150000000","ELEMENT_SET_NO":"999","REV_AT_EPOCH":"15714","ARG_OF_PERICENTER":"82.1559","TLE_LINE1":"1 45698U 20035AT  23089.77260954  .00046164  00000-0  30915-2 0  9995","PERIAPSIS":"546.047","MEAN_ANOMALY":"277.9583","MEAN_ELEMENT_THEORY":"SGP4","SITE":"AFETR","INCLINATION":"53.0506","ECCENTRICITY":"0.00013490","MEAN_MOTION_DOT":"0.00046164","RCS_SIZE":"LARGE","LAUNCH_DATE":"2020-06-04","SEMIMAJOR_AXIS":"6925.116","NORAD_CAT_ID":"45698","APOAPSIS":"547.916","MEAN_MOTION_DDOT":"0.0000000000000","GP_ID":"229181056","RA_OF_ASC_NODE":"182.0977","MEAN_MOTION":"15.06475772","OBJECT_TYPE":"PAYLOAD","DECAY_DATE":null,"EPOCH":"2023-03-30T18:32:33.464256","PERIOD":"95.587","CLASSIFICATION_TYPE":"U","FILE":"3875726","EPHEMERIS_TYPE":"0","TLE_LINE2":"2 45698  53.0506 182.0977 0001349  82.1559 277.9583 15.06475772157147","COUNTRY_CODE":"US","REF_FRAME":"TEME","CENTER_NAME":"EARTH","OBJECT_ID":"2020-035AT","OBJECT_NAME":"STARLINK-1370","TIME_SYSTEM":"UTC"},{"MEAN_ANOMALY":"253.6648","PERIAPSIS":"546.372","ELEMENT_SET_NO":"999","ARG_OF_PERICENTER":"106.4453","REV_AT_EPOCH":"15710","TLE_LINE1":"1 45699U 20035AU  23089.56346332  .00041600  00000-0  27919-2 0  9998","BSTAR":"0.00279190000000","MEAN_MOTION_DOT":"0.00041600","RCS_SIZE":"LARGE","ECCENTRICITY":"0.00010190","SITE":"AFETR","INCLINATION":"53.0522","MEAN_ELEMENT_THEORY":"SGP4","RA_OF_ASC_NODE":"183.0476","MEAN_MOTION":"15.06444363","OBJECT_TYPE":"PAYLOAD","MEAN_MOTION_DDOT":"0.0000000000000","GP_ID":"229180325","LAUNCH_DATE":"2020-06-04","SEMIMAJOR_AXIS":"6925.213","NORAD_CAT_ID":"45699","APOAPSIS":"547.783","OBJECT_ID":"2020-035AU","OBJECT_NAME":"STARLINK-1398","TIME_SYSTEM":"UTC","CENTER_NAME":"EARTH","EPHEMERIS_TYPE":"0","TLE_LINE2":"2 45699  53.0522 183.0476 0001019 106.4453 253.6648 15.06444363157109","REF_FRAME":"TEME","COUNTRY_CODE":"US","DECAY_DATE":null,"EPOCH":"2023-03-30T13:31:23.230848","CLASSIFICATION_TYPE":"U","PERIOD":"95.589","FILE":"3875726"},{"LAUNCH_DATE":"2020-06-04","NORAD_CAT_ID":"45700","APOAPSIS":"547.578","SEMIMAJOR_AXIS":"6924.896","RA_OF_ASC_NODE":"182.4687","MEAN_MOTION":"15.06547682","OBJECT_TYPE":"PAYLOAD","GP_ID":"229180076","MEAN_MOTION_DDOT":"0.0000000000000","TLE_LINE2":"2 45700  53.0517 182.4687 0001180  92.1609 267.9515 15.06547682157127","EPHEMERIS_TYPE":"0","REF_FRAME":"TEME","COUNTRY_CODE":"US","EPOCH":"2023-03-30T16:37:02.646336","DECAY_DATE":null,"FILE":"3875726","PERIOD":"95.583","CLASSIFICATION_TYPE":"U","OBJECT_ID":"2020-035AV","TIME_SYSTEM":"UTC","OBJECT_NAME":"STARLINK-1400","CENTER_NAME":"EARTH","REV_AT_EPOCH":"15712","ARG_OF_PERICENTER":"92.1609","ELEMENT_SET_NO":"999","TLE_LINE1":"1 45700U 20035AV  23089.69239174  .00045080  00000-0  30140-2 0  9996","BSTAR":"0.00301400000000","MEAN_ANOMALY":"267.9515","PERIAPSIS":"545.944","SITE":"AFETR","INCLINATION":"53.0517","MEAN_ELEMENT_THEORY":"SGP4","MEAN_MOTION_DOT":"0.00045080","RCS_SIZE":"LARGE","ECCENTRICITY":"0.00011800"},{"EPOCH":"2023-03-30T12:33:00.359712","DECAY_DATE":null,"FILE":"3875726","PERIOD":"95.589","CLASSIFICATION_TYPE":"U","TLE_LINE2":"2 45701  53.0527 183.2236 0001177 113.9314 246.1799 15.06448072157091","EPHEMERIS_TYPE":"0","REF_FRAME":"TEME","COUNTRY_CODE":"US","CENTER_NAME":"EARTH","OBJECT_ID":"2020-035AW","TIME_SYSTEM":"UTC","OBJECT_NAME":"STARLINK-1403","LAUNCH_DATE":"2020-06-04","APOAPSIS":"547.881","NORAD_CAT_ID":"45701","SEMIMAJOR_AXIS":"6925.201","GP_ID":"229181326","MEAN_MOTION_DDOT":"0.0000000000000","RA_OF_ASC_NODE":"183.2236","MEAN_MOTION":"15.06448072","OBJECT_TYPE":"PAYLOAD","MEAN_ELEMENT_THEORY":"SGP4","SITE":"AFETR","INCLINATION":"53.0527","ECCENTRICITY":"0.00011770","MEAN_MOTION_DOT":"0.00041784","RCS_SIZE":"LARGE","BSTAR":"0.00280380000000","ARG_OF_PERICENTER":"113.9314","REV_AT_EPOCH":"15709","ELEMENT_SET_NO":"999","TLE_LINE1":"1 45701U 20035AW  23089.52292083  .00041784  00000-0  28038-2 0  9997","PERIAPSIS":"546.251","MEAN_ANOMALY":"246.1799"},{"CENTER_NAME":"EARTH","OBJECT_ID":"2020-035AX","OBJECT_NAME":"STARLINK-1405","TIME_SYSTEM":"UTC","DECAY_DATE":null,"EPOCH":"2023-03-30T18:28:35.969664","PERIOD":"95.587","CLASSIFICATION_TYPE":"U","FILE":"3875726","EPHEMERIS_TYPE":"0","TLE_LINE2":"2 45702  53.0513 182.1201 0001134  97.4781 262.6337 15.06476519157137","REF_FRAME":"TEME","COUNTRY_CODE":"US","MEAN_MOTION_DDOT":"0.0000000000000","GP_ID":"229181554","RA_OF_ASC_NODE":"182.1201","MEAN_MOTION":"15.06476519","OBJECT_TYPE":"PAYLOAD","LAUNCH_DATE":"2020-06-04","SEMIMAJOR_AXIS":"6925.114","NORAD_CAT_ID":"45702","APOAPSIS":"547.764","ECCENTRICITY":"0.00011340","MEAN_MOTION_DOT":"0.00038018","RCS_SIZE":"LARGE","MEAN_ELEMENT_THEORY":"SGP4","SITE":"AFETR","INCLINATION":"53.0513","PERIAPSIS":"546.194","MEAN_ANOMALY":"262.6337","BSTAR":"0.00255220000000","ELEMENT_SET_NO":"999","REV_AT_EPOCH":"15713","ARG_OF_PERICENTER":"97.4781","TLE_LINE1":"1 45702U 20035AX  23089.76986076  .00038018  00000-0  25522-2 0  9997"},{"TIME_SYSTEM":"UTC","OBJECT_NAME":"STARLINK-1407","OBJECT_ID":"2020-035AY","CENTER_NAME":"EARTH","COUNTRY_CODE":"US","REF_FRAME":"TEME","TLE_LINE2":"2 45703  53.0531 183.0317 0001271  93.5902 266.5233 15.06520291157102","EPHEMERIS_TYPE":"0","FILE":"3875726","CLASSIFICATION_TYPE":"U","PERIOD":"95.585","EPOCH":"2023-03-30T13:36:35.496864","DECAY_DATE":null,"OBJECT_TYPE":"PAYLOAD","RA_OF_ASC_NODE":"183.0317","MEAN_MOTION":"15.06520291","GP_ID":"229179826","MEAN_MOTION_DDOT":"0.0000000000000","APOAPSIS":"547.725","NORAD_CAT_ID":"45703","SEMIMAJOR_AXIS":"6924.980","LAUNCH_DATE":"2020-06-04","RCS_SIZE":"LARGE","MEAN_MOTION_DOT":"0.00040634","ECCENTRICITY":"0.00012710","INCLINATION":"53.0531","SITE":"AFETR","MEAN_ELEMENT_THEORY":"SGP4","MEAN_ANOMALY":"266.5233","PERIAPSIS":"545.965","TLE_LINE1":"1 45703U 20035AY  23089.56707751  .00040634  00000-0  27223-2 0  9994","ARG_OF_PERICENTER":"93.5902","REV_AT_EPOCH":"15710","ELEMENT_SET_NO":"999","BSTAR":"0.00272230000000"},{"MEAN_MOTION_DDOT":"0.0000000000000","GP_ID":"229180576","OBJECT_TYPE":"PAYLOAD","RA_OF_ASC_NODE":"211.7214","MEAN_MOTION":"15.06504052","SEMIMAJOR_AXIS":"6925.030","NORAD_CAT_ID":"45704","APOAPSIS":"547.566","LAUNCH_DATE":"2020-06-04","CENTER_NAME":"EARTH","OBJECT_NAME":"STARLINK-1409","TIME_SYSTEM":"UTC","OBJECT_ID":"2020-035AZ","PERIOD":"95.586","CLASSIFICATION_TYPE":"U","FILE":"3875726","DECAY_DATE":null,"EPOCH":"2023-03-30T20:35:54.191904","COUNTRY_CODE":"US","REF_FRAME":"TEME","EPHEMERIS_TYPE":"0","TLE_LINE2":"2 45704  53.0519 211.7214 0000969  87.7002 272.4098 15.06504052156733","PERIAPSIS":"546.224","MEAN_ANOMALY":"272.4098","BSTAR":"0.00318840000000","TLE_LINE1":"1 45704U 20035AZ  23089.85826611  .00047666  00000-0  31884-2 0  9994","ELEMENT_SET_NO":"999","ARG_OF_PERICENTER":"87.7002","REV_AT_EPOCH":"15673","ECCENTRICITY":"0.00009690","RCS_SIZE":"LARGE","MEAN_MOTION_DOT":"0.00047666","MEAN_ELEMENT_THEORY":"SGP4","INCLINATION":"53.0519","SITE":"AFETR"}];
